[{"OBJECT_NAME":"OBJECT J","OBJECT_ID":"2023-085J","EPOCH":"2026-03-09T22:47:59.920512","MEAN_MOTION":15.31507187,"ECCENTRICITY":0.00067028,"INCLINATION":97.4828,"RA_OF_ASC_NODE":180.1819,"ARG_OF_PERICENTER":41.7877,"MEAN_ANOMALY":318.3875,"EPHEMERIS_TYPE":0,"CLASSIFICATION_TYPE":"U","NORAD_CAT_ID":57012,"ELEMENT_SET_NO":999,"REV_AT_EPOCH":15156,"BSTAR":0.00064525349,"MEAN_MOTION_DOT":0.00019595,"MEAN_MOTION_DDOT":0},{"OBJECT_NAME":"STARLINK-32501","OBJECT_ID":"2024-204S","EPOCH":"2026-03-09T10:09:35.483904","MEAN_MOTION":15.30189185,"ECCENTRICITY":0.00011604,"INCLINATION":53.1613,"RA_OF_ASC_NODE":128.5371,"ARG_OF_PERICENTER":85.412,"MEAN_ANOMALY":274.7014,"EPHEMERIS_TYPE":0,"CLASSIFICATION_TYPE":"U","NORAD_CAT_ID":61890,"ELEMENT_SET_NO":999,"REV_AT_EPOCH":7505,"BSTAR":3.0193009e-5,"MEAN_MOTION_DOT":5.35e-6,"MEAN_MOTION_DDOT":0}]
